#dP2018  8 12  0  0  0.00000000      96 __u+U ITR00 FIT  IAC
## 2014      0.00000000   900.00000000 58342 0.0000000000000
+   87   C01C02C03C04C05C06C07C08C09C10C11C12C13C14E01E02E03
+        E04E05E07E08E09E11E12E14E18E19E24E26E30G01G02G03G04
+        G05G06G07G08G09G10G11G12G13G14G15G16G17G18G19G20G21
+        G22G23G24G25G26G27G28G29G30G31G32J01J02J03R01R02R03
+        R04R07R08R09R10R11R13R14R15R16R17R18R19R20R21R22R23
+        R24R26  0  0  0  0  0  0  0  0  0  0  0  0  0  0  0
++         0  0  0  0  0  0  0  0  0  0  0  0  0  0  0  0  0
++         0  0  0  0  0  0  0  0  0  0  0  0  0  0  0  0  0
++         0  0  0  0  0  0  0  0  0  0  0  0  0  0  0  0  0
++         0  0  0  0  0  0  0  0  0  0  0  0  0  0  0  0  0
++         0  0  0  0  0  0  0  0  0  0  0  0  0  0  0  0  0
++         0  0  0  0  0  0  0  0  0  0  0  0  0  0  0  0  0
%c M  cc GPS ccc cccc cccc cccc cccc ccccc ccccc ccccc ccccc
%c cc cc ccc ccc cccc cccc cccc cccc ccccc ccccc ccccc ccccc
%f  0.0000000  0.000000000  0.00000000000  0.000000000000000
%f  0.0000000  0.000000000  0.00000000000  0.000000000000000
%i    0    0    0    0      0      0      0      0         0
%i    0    0    0    0      0      0      0      0         0
/*                                                          
/*   RSA / INFORMATION & ANALYSIS CENTER (IAC) OF MCC       
/*   ULTRA-RAPID DETERMINATION                              
/* PCV:IGS14_2000 OL/AL:FES2004  NONE     YN ORB:CoN CLK:CoN
*  2018 08 12 14 15  0.00000000
PC01 -32352.622359  27049.787172   -856.079336    461.091299
PC02   4408.814949  41930.006150     74.131172    -97.726076
PC03 -14766.839140  39470.979754  -1006.901726    353.721557
PC04 -39632.158192  14364.937010   -726.371081   -238.007424
PC05  21974.677269  35994.671465    231.007093    -42.134321
PC06 -13270.571903  21786.499492  33820.646245    220.910631
PC07 -23444.632333  34592.860080  -7188.220464     26.785030
PC08  -6869.218982  32748.180084 -25427.158538    480.529750
PC09    926.624543  25540.744871  33766.049833    133.002808
PC10 -11557.736268  35722.266105 -19436.255721     14.331492
PC11  12929.032303  -8759.113476  23171.448895   -632.220444
PC12  22345.923322   9088.080544  13995.528664    556.271783
PC13   1949.190259  39502.038930 -14255.549962   -223.247572
PC14  23980.992845 -12161.860593  -7499.377059    277.016460
PE01 -12004.993383  25799.626684  -8176.133270   -411.194804
PE02  11965.367465 -25794.206893   8219.203856     23.203623
PE03   7008.904924 -16233.315777 -23729.787485    -64.910349
PE04  15207.248277  15799.995074  19891.570067    -94.743121
PE05  25249.734403  -7153.803845 -13681.943379    212.594344
PE07 -28653.913932  -6062.754720  -4312.564877    -18.780587
PE08 -15398.559689 -15523.991138 -19948.728949   6524.962270
PE09  28683.296881   5811.438816   4392.214159   6708.073313
PE11  19432.871258  11952.139409  18857.163447   3621.896228
PE12  13402.905606  26344.103513   1735.737750   4811.169959
PE14   9029.962748  24096.589125 -18712.530919   6536.541937
PE18 -15784.848996 -17766.480483   7319.842380   5988.563120
PE19  -9076.532072  15639.002650  23443.903465    -13.257423
PE24  18240.309234    923.915048 -23301.816282   6551.004703
PE26 -14125.196133   8895.562083 -24447.275953   5602.128106
PE30  -4406.472907 -18903.246793  22341.125539   5601.768981
PG01  13272.250023 -11536.377010  19645.112306    -75.658012
PG02 -14205.963834 -11754.468275 -18636.822417     30.216538
PG03  22860.834251 -13445.449864    302.988765    120.417037
PG04   5886.630218  13791.507750 -22161.982427     87.671429
PG05 -20246.685730  -1904.035627 -17306.949113     -3.299304
PG06  -6576.866891 -24109.093654  -8934.786283    377.073188
PG07   6160.956873 -23973.429633  -8733.921979    142.985153
PG08  23624.995741   3494.676874  11827.808008   -111.398697
PG09   7999.159896 -13187.789790 -21650.833818    511.234111
PG10   -318.969043  16886.355933  20500.804341    186.980161
PG11  14638.544194  -6733.874890  20554.310861   -725.174983
PG12 -24396.373854   8717.889561   5199.627320    314.578199
PG13 -23049.059618 -11902.932440   5623.416383    -91.093653
PG14  17227.473614  18573.781349   8575.943758    -97.626860
PG15 -22786.047272   1042.060164  13700.186895   -348.678131
PG16  19017.075335   4202.219493 -18409.013349     13.891849
PG17  -9444.353964 -18893.755506  16566.288364    -68.092138
PG18  15136.498686  -1643.080068  21287.168604     44.797135
PG19 -17191.837725 -18366.589575   7987.523146   -412.405186
PG20  -9165.880641  20344.399267  14215.880319    514.028153
PG21  -1633.530368  25955.402305  -4684.848577   -353.699188
PG22  23734.982077  -8540.587787   8514.138657   -486.963729
PG23  18048.642503  -5588.672431 -18529.531786   -212.937685
PG24 -14695.695534   7296.063783  20716.503008    -53.836860
PG25 -18158.739449  17405.354283  -8334.356524   -630.513191
PG26  10612.500080  11342.163973 -21563.717607    -54.005452
PG27  23746.634843  12148.288678   1179.245383    354.498626
PG28   4311.228152 -17167.384977  20440.063263    737.737544
PG29  -9856.236011  11096.996455 -22052.063811    397.351983
PG30   -188.329086 -26425.548119   1464.727845     38.600126
PG31   7310.879348  22828.587580 -10932.556951    101.176658
PG32  10707.907195  18536.438191  15823.226588   -453.352554
PJ01 -27944.690964  29913.428704  15411.547022   -144.616408
PJ02 -29919.137404  25780.013192  19169.371738    -10.048460
PJ03 -26330.384901  17412.369654 -23302.905791     -4.293436
PR01  20898.861184   4712.288394  13837.385772     30.427632
PR02  24478.389959  -4601.946868  -5580.078174    324.353456
PR03  12364.580425 -10434.910732 -19692.959767    140.298147
PR04  -7487.248568 -10000.227192 -22218.334035    272.103608
PR07 -11825.833907  10533.650468  20021.744085    -44.626230
PR08   6749.726949  10183.462751  22446.515272     21.818979
PR09 -14978.748543  13274.268948  15876.209970     22.873592
PR10 -11358.083898  22892.148379    294.818631     29.589561
PR11   -790.121304  19597.858411 -16322.509929    -37.495064
PR13  14555.300957 -13274.009337 -16209.449608    -13.519627
PR14  11261.924949 -22870.279752   -422.565595     29.970793
PR15   3794.281526 -21592.624156  13128.085686    -14.552391
PR16  -9493.521872  -5623.114394  22982.977843     99.145940
PR17   1537.161438 -14754.424145  20763.801279    155.463376
PR18 -10360.669445 -21797.044813   8180.024297    206.515423
PR19 -16308.965536 -17310.925537  -9233.623406    -57.895165
PR20 -12732.177246  -1293.805012 -22056.592348   -348.441669
PR21  -1217.333744  14947.315665 -20631.673315      2.413178
PR22  11588.428811  21979.473100  -6047.869216    -58.776799
PR23  16760.799145  14245.419374  12900.397341    171.510028
PR24  12273.342779     39.077042  22331.305260   -170.028968
PR26 -13361.115039  -2182.637216 -21618.099424     40.560116
EOF
